{"type": "FeatureCollection", "features": [ {"type": "Feature", "properties": {"norad_id": 35661, "name": "COSMOS 2251 DEB", "group": "cosmos-2251-debris", "lat": 73.44316406891961, "lon": 138.5044750838876, "alt_km": 590.2262584123227, "timestamp": "2025-12-20T16:47:36.681157+00:00", "meta": {"OBJECT_NAME": "COSMOS 2251 DEB", "OBJECT_ID": "1993-036APC", "EPOCH": "2025-12-19T22:38:27.645792", "MEAN_MOTION": 14.86671429, "ECCENTRICITY": 0.0087195, "INCLINATION": 74.014, "RA_OF_ASC_NODE": 65.3706, "ARG_OF_PERICENTER": 167.7543, "MEAN_ANOMALY": 192.5786, "EPHEMERIS_TYPE": 0, "CLASSIFICATION_TYPE": "U", "NORAD_CAT_ID": 35661, "ELEMENT_SET_NO": 999, "REV_AT_EPOCH": 87975, "BSTAR": 0.00052652, "MEAN_MOTION_DOT": 4.978e-05, "MEAN_MOTION_DDOT": 0}, "tle": {"line1": "1 35661U 93036APC 25353.94337553  .00004978  00000+0  52652-3 0  9999", "line2": "2 35661  74.0140  65.3706 0087195 167.7543 192.5786 14.86671429879751"}}, "geometry": {"type": "Point", "coordinates": [138.5044750838876, 73.44316406891961]}}, {"type": "Feature", "properties": {"norad_id": 35663, "name": "COSMOS 2251 DEB", "group": "cosmos-2251-debris", "lat": 73.51092103583511, "lon": -146.17038023111573, "alt_km": 667.3177147362585, "timestamp": "2025-12-20T16:47:36.681167+00:00", "meta": {"OBJECT_NAME": "COSMOS 2251 DEB", "OBJECT_ID": "1993-036APE", "EPOCH": "2025-12-19T23:59:07.553472", "MEAN_MOTION": 14.65779868, "ECCENTRICITY": 0.00057705, "INCLINATION": 74.0195, "RA_OF_ASC_NODE": 110.6712, "ARG_OF_PERICENTER": 187.908, "MEAN_ANOMALY": 172.1999, "EPHEMERIS_TYPE": 0, "CLASSIFICATION_TYPE": "U", "NORAD_CAT_ID": 35663, "ELEMENT_SET_NO": 999, "REV_AT_EPOCH": 73488, "BSTAR": 0.0009843987, "MEAN_MOTION_DOT": 5.342e-05, "MEAN_MOTION_DDOT": 0}, "tle": {"line1": "1 35663U 93036APE 25353.99939298  .00005342  00000+0  98440-3 0  9991", "line2": "2 35663  74.0195 110.6712 0005770 187.9080 172.1999 14.65779868734880"}}, "geometry": {"type": "Point", "coordinates": [-146.17038023111573, 73.51092103583511]}}, {"type": "Feature", "properties": {"norad_id": 35667, "name": "COSMOS 2251 DEB", "group": "cosmos-2251-debris", "lat": -19.109309160720898, "lon": 119.25544253113625, "alt_km": 710.2057439203536, "timestamp": "2025-12-20T16:47:36.681177+00:00", "meta": {"OBJECT_NAME": "COSMOS 2251 DEB", "OBJECT_ID": "1993-036APJ", "EPOCH": "2025-12-14T16:10:30.846432", "MEAN_MOTION": 14.60047432, "ECCENTRICITY": 0.00195944, "INCLINATION": 74.0556, "RA_OF_ASC_NODE": 136.4208, "ARG_OF_PERICENTER": 197.4569, "MEAN_ANOMALY": 162.5926, "EPHEMERIS_TYPE": 0, "CLASSIFICATION_TYPE": "U", "NORAD_CAT_ID": 35667, "ELEMENT_SET_NO": 999, "REV_AT_EPOCH": 70831, "BSTAR": 0.0010671241, "MEAN_MOTION_DOT": 5.114e-05, "MEAN_MOTION_DDOT": 0}, "tle": {"line1": "1 35667U 93036APJ 25348.67396813  .00005114  00000+0  10671-2 0  9990", "line2": "2 35667  74.0556 136.4208 0019594 197.4569 162.5926 14.60047432708310"}}, "geometry": {"type": "Point", "coordinates": [119.25544253113625, -19.109309160720898]}}, {"type": "Feature", "properties": {"norad_id": 35668, "name": "COSMOS 2251 DEB", "group": "cosmos-2251-debris", "lat": -24.815667968161126, "lon": 32.847593455049896, "alt_km": 698.0051746588169, "timestamp": "2025-12-20T16:47:36.681187+00:00", "meta": {"OBJECT_NAME": "COSMOS 2251 DEB", "OBJECT_ID": "1993-036APK", "EPOCH": "2025-12-18T08:05:19.351392", "MEAN_MOTION": 14.64002909, "ECCENTRICITY": 0.0083412, "INCLINATION": 74.0461, "RA_OF_ASC_NODE": 209.7797, "ARG_OF_PERICENTER": 313.6421, "MEAN_ANOMALY": 45.7849, "EPHEMERIS_TYPE": 0, "CLASSIFICATION_TYPE": "U", "NORAD_CAT_ID": 35668, "ELEMENT_SET_NO": 999, "REV_AT_EPOCH": 87729, "BSTAR": 0.00019067557, "MEAN_MOTION_DOT": 1.017e-05, "MEAN_MOTION_DDOT": 0}, "tle": {"line1": "1 35668U 93036APK 25352.33702953  .00001017  00000+0  19068-3 0  9993", "line2": "2 35668  74.0461 209.7797 0083412 313.6421  45.7849 14.64002909877296"}}, "geometry": {"type": "Point", "coordinates": [32.847593455049896, -24.815667968161126]}}, {"type": "Feature", "properties": {"norad_id": 35669, "name": "COSMOS 2251 DEB", "group": "cosmos-2251-debris", "lat": 10.204713894861964, "lon": 149.3943749734687, "alt_km": 1154.2209050557867, "timestamp": "2025-12-20T16:47:36.681197+00:00", "meta": {"OBJECT_NAME": "COSMOS 2251 DEB", "OBJECT_ID": "1993-036APL", "EPOCH": "2025-12-20T02:35:15.805248", "MEAN_MOTION": 13.57168765, "ECCENTRICITY": 0.03877863, "INCLINATION": 73.8603, "RA_OF_ASC_NODE": 147.3718, "ARG_OF_PERICENTER": 257.91, "MEAN_ANOMALY": 97.8317, "EPHEMERIS_TYPE": 0, "CLASSIFICATION_TYPE": "U", "NORAD_CAT_ID": 35669, "ELEMENT_SET_NO": 999, "REV_AT_EPOCH": 60889, "BSTAR": 0.00066721827, "MEAN_MOTION_DOT": 7.5e-06, "MEAN_MOTION_DDOT": 0}, "tle": {"line1": "1 35669U 93036APL 25354.10782182  .00000750  00000+0  66722-3 0  9995", "line2": "2 35669  73.8603 147.3718 0387786 257.9100  97.8317 13.57168765608897"}}, "geometry": {"type": "Point", "coordinates": [149.3943749734687, 10.204713894861964]}}, {"type": "Feature", "properties": {"norad_id": 35670, "name": "COSMOS 2251 DEB", "group": "cosmos-2251-debris", "lat": -73.53483222427437, "lon": -29.522143264384948, "alt_km": 593.6885262737305, "timestamp": "2025-12-20T16:47:36.681207+00:00", "meta": {"OBJECT_NAME": "COSMOS 2251 DEB", "OBJECT_ID": "1993-036APM", "EPOCH": "2025-12-19T10:38:44.466144", "MEAN_MOTION": 14.94072625, "ECCENTRICITY": 0.0038179, "INCLINATION": 73.895, "RA_OF_ASC_NODE": 50.8731, "ARG_OF_PERICENTER": 9.8443, "MEAN_ANOMALY": 350.3478, "EPHEMERIS_TYPE": 0, "CLASSIFICATION_TYPE": "U", "NORAD_CAT_ID": 35670, "ELEMENT_SET_NO": 999, "REV_AT_EPOCH": 87827, "BSTAR": 0.00080624, "MEAN_MOTION_DOT": 8.707e-05, "MEAN_MOTION_DDOT": 0}, "tle": {"line1": "1 35670U 93036APM 25353.44357021  .00008707  00000+0  80624-3 0  9990", "line2": "2 35670  73.8950  50.8731 0038179   9.8443 350.3478 14.94072625878277"}}, "geometry": {"type": "Point", "coordinates": [-29.522143264384948, -73.53483222427437]}}, {"type": "Feature", "properties": {"norad_id": 35671, "name": "COSMOS 2251 DEB", "group": "cosmos-2251-debris", "lat": 52.158965233285926, "lon": -137.25733987892673, "alt_km": 736.7992264084942, "timestamp": "2025-12-20T16:47:36.681217+00:00", "meta": {"OBJECT_NAME": "COSMOS 2251 DEB", "OBJECT_ID": "1993-036APN", "EPOCH": "2025-12-17T12:02:51.877248", "MEAN_MOTION": 14.48356669, "ECCENTRICITY": 0.00414327, "INCLINATION": 74.0178, "RA_OF_ASC_NODE": 70.3857, "ARG_OF_PERICENTER": 243.6268, "MEAN_ANOMALY": 134.9759, "EPHEMERIS_TYPE": 0, "CLASSIFICATION_TYPE": "U", "NORAD_CAT_ID": 35671, "ELEMENT_SET_NO": 999, "REV_AT_EPOCH": 86832, "BSTAR": 0.00018080216, "MEAN_MOTION_DOT": 6.55e-06, "MEAN_MOTION_DDOT": 0}, "tle": {"line1": "1 35671U 93036APN 25351.50198932  .00000655  00000+0  18080-3 0  9991", "line2": "2 35671  74.0178  70.3857 0041432 243.6268 134.9759 14.48356669868323"}}, "geometry": {"type": "Point", "coordinates": [-137.25733987892673, 52.158965233285926]}}, {"type": "Feature", "properties": {"norad_id": 35674, "name": "COSMOS 2251 DEB", "group": "cosmos-2251-debris", "lat": 9.372297742659107, "lon": 118.77598277826955, "alt_km": 780.6894410591494, "timestamp": "2025-12-20T16:47:36.681227+00:00", "meta": {"OBJECT_NAME": "COSMOS 2251 DEB", "OBJECT_ID": "1993-036APR", "EPOCH": "2025-12-17T07:06:57.455712", "MEAN_MOTION": 14.54280117, "ECCENTRICITY": 0.00961628, "INCLINATION": 74.0599, "RA_OF_ASC_NODE": 307.9038, "ARG_OF_PERICENTER": 351.6495, "MEAN_ANOMALY": 8.3061, "EPHEMERIS_TYPE": 0, "CLASSIFICATION_TYPE": "U", "NORAD_CAT_ID": 35674, "ELEMENT_SET_NO": 999, "REV_AT_EPOCH": 86177, "BSTAR": 0.001519305, "MEAN_MOTION_DOT": 6.829e-05, "MEAN_MOTION_DDOT": 0}, "tle": {"line1": "1 35674U 93036APR 25351.29649833  .00006829  00000+0  15193-2 0  9991", "line2": "2 35674  74.0599 307.9038 0096162 351.6495   8.3061 14.54280117861778"}}, "geometry": {"type": "Point", "coordinates": [118.77598277826955, 9.372297742659107]}}, {"type": "Feature", "properties": {"norad_id": 35701, "name": "COSMOS 2251 DEB", "group": "cosmos-2251-debris", "lat": 4.5368882969176285, "lon": 107.69564334029377, "alt_km": 793.8263263936269, "timestamp": "2025-12-20T16:47:36.681236+00:00", "meta": {"OBJECT_NAME": "COSMOS 2251 DEB", "OBJECT_ID": "1993-036APW", "EPOCH": "2025-12-06T05:57:57.623904", "MEAN_MOTION": 13.80843435, "ECCENTRICITY": 0.02897209, "INCLINATION": 74.0028, "RA_OF_ASC_NODE": 313.2955, "ARG_OF_PERICENTER": 164.0681, "MEAN_ANOMALY": 196.98, "EPHEMERIS_TYPE": 0, "CLASSIFICATION_TYPE": "U", "NORAD_CAT_ID": 35701, "ELEMENT_SET_NO": 999, "REV_AT_EPOCH": 62069, "BSTAR": 0.0021223911, "MEAN_MOTION_DOT": 3.05e-05, "MEAN_MOTION_DDOT": 0}, "tle": {"line1": "1 35701U 93036APW 25340.24858361  .00003050  00000+0  21224-2 0  9998", "line2": "2 35701  74.0028 313.2955 0289720 164.0681 196.9800 13.80843435620696"}}, "geometry": {"type": "Point", "coordinates": [107.69564334029377, 4.5368882969176285]}}, {"type": "Feature", "properties": {"norad_id": 35703, "name": "COSMOS 2251 DEB", "group": "cosmos-2251-debris", "lat": 73.4067125281843, "lon": 100.62956635488273, "alt_km": 544.7446148524732, "timestamp": "2025-12-20T16:47:36.681246+00:00", "meta": {"OBJECT_NAME": "COSMOS 2251 DEB", "OBJECT_ID": "1993-036APY", "EPOCH": "2025-12-19T19:28:19.720704", "MEAN_MOTION": 14.90429522, "ECCENTRICITY": 0.00644481, "INCLINATION": 74.0419, "RA_OF_ASC_NODE": 28.6105, "ARG_OF_PERICENTER": 96.1658, "MEAN_ANOMALY": 264.6872, "EPHEMERIS_TYPE": 0, "CLASSIFICATION_TYPE": "U", "NORAD_CAT_ID": 35703, "ELEMENT_SET_NO": 999, "REV_AT_EPOCH": 66721, "BSTAR": 0.00034742291, "MEAN_MOTION_DOT": 3.485e-05, "MEAN_MOTION_DDOT": 0}, "tle": {"line1": "1 35703U 93036APY 25353.81133936  .00003485  00000+0  34742-3 0  9993", "line2": "2 35703  74.0419  28.6105 0064448  96.1658 264.6872 14.90429522667213"}}, "geometry": {"type": "Point", "coordinates": [100.62956635488273, 73.4067125281843]}}]}